stk.v.4.3 

BEGIN Ephemeris 
 
NumberOfEphemerisPoints		146 
ScenarioEpoch	    1 Sep 2020 12:22:26.153470874 
InterpolationMethod		Lagrange 
InterpolationOrder		5 
CentralBody				Earth 
CoordinateSystem			TEME 
CoordinateSystemEpoch	  1 Sep 2020 12:22:26.153470874 
DistanceUnit			Kilometers 
 
EphemerisTimePosVel 
 
       0.00000000    -535.90781804    7136.81289333       0.03426806 -0.467096001 -0.044396255  7.449682986
 END Ephemeris 
